ONEWEB-0520             
1 54138U 22138AB  25031.07103995  .00000065  00000+0  13016-3 0  9996
2 54138  87.9141  44.7712 0001895 104.3532 255.7811 13.19723710111465
ONEWEB-0521             
1 54139U 22138AC  25030.49767539  .00000023  00000+0  26284-4 0  9998
2 54139  87.9138  44.8749 0001699  83.0655 277.0671 13.19723990110464
ONEWEB-0522             
1 54140U 22138AD  25031.08367430  .00000058  00000+0  11338-3 0  9993
2 54140  87.9137  44.7596 0001933  94.0347 266.1007 13.19722437111452
ONEWEB-0523             
1 54141U 22138AE  25030.45994024  .00000084  00000+0  17504-3 0  9999
2 54141  87.9267  14.4631 0002395  65.4180 294.7202 13.20771622113819
ONEWEB-0524             
1 54142U 22138AF  25030.67614372 -.00000259  00000+0 -66989-3 0  9996
2 54142  87.9268  14.4223 0002863  85.3921 274.7539 13.20770489112979
ONEWEB-0525             
1 54143U 22138AG  25031.10263664 -.00000040  00000+0 -13169-3 0  9990
2 54143  87.9141  44.7710 0001739 103.0368 257.0959 13.19724526111474
ONEWEB-0526             
1 54144U 22138AH  25030.52926330  .00000076  00000+0  15803-3 0  9996
2 54144  87.9142  44.8764 0001916  95.7481 264.3870 13.19724038111376
ONEWEB-0529             
1 54145U 22138AJ  25030.53242244  .00000063  00000+0  12477-3 0  9993
2 54145  87.9149  44.9075 0001859 101.0797 259.0545 13.19723691111393
